$$SOE
2460721.500000000, A.D. 2025-Feb-15 00:00:00.0000, -9.317061137705760E+07, -6.078391634079341E+08, -2.261210313848183E+07,
2460728.500000000, A.D. 2025-Feb-22 00:00:00.0000, -8.444612064244397E+07, -6.074409742793235E+08, -2.296522493953758E+07,
2460735.500000000, A.D. 2025-Mar-01 00:00:00.0000, -7.570389564162330E+07, -6.069152803862602E+08, -2.331352304379940E+07,
2460742.500000000, A.D. 2025-Mar-08 00:00:00.0000, -6.694564035708994E+07, -6.062611582798481E+08, -2.365688491607425E+07,
2460749.500000000, A.D. 2025-Mar-15 00:00:00.0000, -5.817308910120400E+07, -6.054776956338024E+08, -2.399519724547791E+07,
2460756.500000000, A.D. 2025-Mar-22 00:00:00.0000, -4.938800915167207E+07, -6.045639915992650E+08, -2.432834571826312E+07,
2460763.500000000, A.D. 2025-Mar-29 00:00:00.0000, -4.059220200898284E+07, -6.035191594434952E+08, -2.465621510108715E+07,
2460770.500000000, A.D. 2025-Apr-05 00:00:00.0000, -3.178750294932739E+07, -6.023423283351748E+08, -2.497868940846547E+07,
2460777.500000000, A.D. 2025-Apr-12 00:00:00.0000, -2.297578079791802E+07, -6.010326441731499E+08, -2.529565196963671E+07,
2460784.500000000, A.D. 2025-Apr-19 00:00:00.0000, -1.415893810881333E+07, -5.995892703404206E+08, -2.560698545005736E+07,
2460791.500000000, A.D. 2025-Apr-26 00:00:00.0000, -5.338911478436022E+06, -5.980113885867051E+08, -2.591257186937824E+07,
2460798.500000000, A.D. 2025-May-03 00:00:00.0000, 3.482328122100743E+06, -5.962982000205448E+08, -2.621229262506461E+07,
2460805.500000000, A.D. 2025-May-10 00:00:00.0000, 1.230277502574005E+07, -5.944489262023128E+08, -2.650602852383444E+07,
2460812.500000000, A.D. 2025-May-17 00:00:00.0000, 2.112038859743670E+07, -5.924628103791187E+08, -2.679365982784191E+07,
2460819.500000000, A.D. 2025-May-24 00:00:00.0000, 2.993309318677827E+07, -5.903391189159945E+08, -2.707506633616376E+07,
2460826.500000000, A.D. 2025-May-31 00:00:00.0000, 3.873877872474825E+07, -5.880771426123508E+08, -2.735012751460743E+07,
2460833.500000000, A.D. 2025-Jun-07 00:00:00.0000, 4.753530156551352E+07, -5.856761966989374E+08, -2.761872253870478E+07,
2460840.500000000, A.D. 2025-Jun-14 00:00:00.0000, 5.632048321059420E+07, -5.831356201820484E+08, -2.788073008759785E+07,
2460847.500000000, A.D. 2025-Jun-21 00:00:00.0000, 6.509210813438537E+07, -5.804547778061509E+08, -2.813602826787376E+07,
2460854.500000000, A.D. 2025-Jun-28 00:00:00.0000, 7.384792384157448E+07, -5.776330628707105E+08, -2.838449481017578E+07,
2460861.500000000, A.D. 2025-Jul-05 00:00:00.0000, 8.258564164174217E+07, -5.746698987454455E+08, -2.862600722330850E+07,
2460868.500000000, A.D. 2025-Jul-12 00:00:00.0000, 9.130293695199622E+07, -5.715647398895410E+08, -2.886044286242306E+07,
2460875.500000000, A.D. 2025-Jul-19 00:00:00.0000, 9.999744931921102E+07, -5.683170729496642E+08, -2.908767897564885E+07,
2460882.500000000, A.D. 2025-Jul-26 00:00:00.0000, 1.086667823740062E+08, -5.649264179929075E+08, -2.930759275302851E+07,
2460889.500000000, A.D. 2025-Aug-02 00:00:00.0000, 1.173085037842311E+08, -5.613923298524239E+08, -2.952006138195270E+07,
2460896.500000000, A.D. 2025-Aug-09 00:00:00.0000, 1.259201452339507E+08, -5.577143995996816E+08, -2.972496211239821E+07,
2460903.500000000, A.D. 2025-Aug-16 00:00:00.0000, 1.344992025076298E+08, -5.538922562058805E+08, -2.992217234413546E+07,
2460910.500000000, A.D. 2025-Aug-23 00:00:00.0000, 1.430431359749492E+08, -5.499255683755182E+08, -3.011156976130632E+07,
2460917.500000000, A.D. 2025-Aug-30 00:00:00.0000, 1.515493718078837E+08, -5.458140458376578E+08, -3.029303248605770E+07,
2460924.500000000, A.D. 2025-Sep-06 00:00:00.0000, 1.600153025143460E+08, -5.415574390939890E+08, -3.046643903923333E+07,
2460931.500000000, A.D. 2025-Sep-13 00:00:00.0000, 1.684382851200109E+08, -5.371555401050824E+08, -3.063166815758982E+07,
2460938.500000000, A.D. 2025-Sep-20 00:00:00.0000, 1.768156402744333E+08, -5.326081855573621E+08, -3.078859890197164E+07,
2460945.500000000, A.D. 2025-Sep-27 00:00:00.0000, 1.851446533432648E+08, -5.279152595978518E+08, -3.093711089912817E+07,
2460952.500000000, A.D. 2025-Oct-04 00:00:00.0000, 1.934225754729447E+08, -5.230766954962341E+08, -3.107708448802811E+07,
2460959.500000000, A.D. 2025-Oct-11 00:00:00.0000, 2.016466242571328E+08, -5.180924771755520E+08, -3.120840081340253E+07,
2460966.500000000, A.D. 2025-Oct-18 00:00:00.0000, 2.098139842914977E+08, -5.129626408839022E+08, -3.133094191496071E+07,
2460973.500000000, A.D. 2025-Oct-25 00:00:00.0000, 2.179218077593288E+08, -5.076872769937207E+08, -3.144459082424176E+07,
2460980.500000000, A.D. 2025-Nov-01 00:00:00.0000, 2.259672150903198E+08, -5.022665319103881E+08, -3.154923167158177E+07,
2460987.500000000, A.D. 2025-Nov-08 00:00:00.0000, 2.339472957300742E+08, -4.967006101183991E+08, -3.164474980911326E+07,
2460994.500000000, A.D. 2025-Nov-15 00:00:00.0000, 2.418591091713973E+08, -4.909897764202995E+08, -3.173103196836835E+07,
2461001.500000000, A.D. 2025-Nov-22 00:00:00.0000, 2.496996866534419E+08, -4.851343581450920E+08, -3.180796647166899E+07,
2461008.500000000, A.D. 2025-Nov-29 00:00:00.0000, 2.574660333787143E+08, -4.791347461881346E+08, -3.187544339071661E+07,
2461015.500000000, A.D. 2025-Dec-06 00:00:00.0000, 2.651551289732072E+08, -4.729913950152304E+08, -3.193335445477578E+07,
2461022.500000000, A.D. 2025-Dec-13 00:00:00.0000, 2.727639266257081E+08, -4.667048249968221E+08, -3.198159302377453E+07,
2461029.500000000, A.D. 2025-Dec-20 00:00:00.0000, 2.802893544023955E+08, -4.602756260443610E+08, -3.202005436318910E+07,
2461036.500000000, A.D. 2025-Dec-27 00:00:00.0000, 2.877283176660585E+08, -4.537044599533036E+08, -3.204863591048849E+07,
2461043.500000000, A.D. 2026-Jan-03 00:00:00.0000, 2.950777011433394E+08, -4.469920620638906E+08, -3.206723744954592E+07,
2461050.500000000, A.D. 2026-Jan-10 00:00:00.0000, 3.023343707518333E+08, -4.401392429135181E+08, -3.207576125840381E+07,
2461057.500000000, A.D. 2026-Jan-17 00:00:00.0000, 3.094951754212351E+08, -4.331468899664261E+08, -3.207411225896212E+07,
2461064.500000000, A.D. 2026-Jan-24 00:00:00.0000, 3.165569489877586E+08, -4.260159693914315E+08, -3.206219817356917E+07,
2461071.500000000, A.D. 2026-Jan-31 00:00:00.0000, 3.235165121864348E+08, -4.187475278877154E+08, -3.203992969093078E+07,
2461078.500000000, A.D. 2026-Feb-07 00:00:00.0000, 3.303706748042082E+08, -4.113426946080874E+08, -3.200722065133747E+07,
2461085.500000000, A.D. 2026-Feb-14 00:00:00.0000, 3.371162382488301E+08, -4.038026831871643E+08, -3.196398827539015E+07,
2461092.500000000, A.D. 2026-Feb-21 00:00:00.0000, 3.437499989234050E+08, -3.961287932904592E+08, -3.191015342435744E+07,
2461099.500000000, A.D. 2026-Feb-28 00:00:00.0000, 3.502687513235216E+08, -3.883224105250302E+08, -3.184564069813123E+07,
2461106.500000000, A.D. 2026-Mar-07 00:00:00.0000, 3.566692887985960E+08, -3.803850066557332E+08, -3.177037834099559E+07,
2461113.500000000, A.D. 2026-Mar-14 00:00:00.0000, 3.629484047521858E+08, -3.723181424524838E+08, -3.168429840002301E+07,
2461120.500000000, A.D. 2026-Mar-21 00:00:00.0000, 3.691028960634769E+08, -3.641234702627472E+08, -3.158733706233387E+07,
2461127.500000000, A.D. 2026-Mar-28 00:00:00.0000, 3.751295667198151E+08, -3.558027352732159E+08, -3.147943490235005E+07,
2461134.500000000, A.D. 2026-Apr-04 00:00:00.0000, 3.810252310551624E+08, -3.473577764188258E+08, -3.136053706202374E+07,
2461141.500000000, A.D. 2026-Apr-11 00:00:00.0000, 3.867867168664375E+08, -3.387905272912664E+08, -3.123059341795737E+07,
2461148.500000000, A.D. 2026-Apr-18 00:00:00.0000, 3.924108685646880E+08, -3.301030170457540E+08, -3.108955874991751E+07,
2461155.500000000, A.D. 2026-Apr-25 00:00:00.0000, 3.978945504041487E+08, -3.212973712834156E+08, -3.093739291305938E+07,
2461162.500000000, A.D. 2026-May-02 00:00:00.0000, 4.032346498164666E+08, -3.123758129308975E+08, -3.077406101840742E+07,
2461169.500000000, A.D. 2026-May-09 00:00:00.0000, 4.084280809705615E+08, -3.033406631751211E+08, -3.059953363773803E+07,
2461176.500000000, A.D. 2026-May-16 00:00:00.0000, 4.134717889315810E+08, -2.941943423062400E+08, -3.041378705554175E+07,
2461183.500000000, A.D. 2026-May-23 00:00:00.0000, 4.183627544664476E+08, -2.849393694382517E+08, -3.021680348862116E+07,
2461190.500000000, A.D. 2026-May-30 00:00:00.0000, 4.230979974127126E+08, -2.755783607807471E+08, -3.000857105599499E+07,
2461197.500000000, A.D. 2026-Jun-06 00:00:00.0000, 4.276745782865213E+08, -2.661140297284776E+08, -2.978908373700859E+07,
2461204.500000000, A.D. 2026-Jun-13 00:00:00.0000, 4.320896017874535E+08, -2.565491885617971E+08, -2.955834163712110E+07,
2461211.500000000, A.D. 2026-Jun-20 00:00:00.0000, 4.363402216914146E+08, -2.468867488241147E+08, -2.931635127583387E+07,
2461218.500000000, A.D. 2026-Jun-27 00:00:00.0000, 4.404236454252239E+08, -2.371297207095218E+08, -2.906312576836687E+07,
2461225.500000000, A.D. 2026-Jul-04 00:00:00.0000, 4.443371383139293E+08, -2.272812122292883E+08, -2.879868496402392E+07,
2461232.500000000, A.D. 2026-Jul-11 00:00:00.0000, 4.480780277451890E+08, -2.173444282832825E+08, -2.852305557493448E+07,
2461239.500000000, A.D. 2026-Jul-18 00:00:00.0000, 4.516437073332795E+08, -2.073226696052175E+08, -2.823627130117926E+07,
2461246.500000000, A.D. 2026-Jul-25 00:00:00.0000, 4.550316410964632E+08, -1.972193315742992E+08, -2.793837295389660E+07,
2461253.500000000, A.D. 2026-Aug-01 00:00:00.0000, 4.582393676843632E+08, -1.870379029374099E+08, -2.762940858426709E+07,
2461260.500000000, A.D. 2026-Aug-08 00:00:00.0000, 4.612645048577976E+08, -1.767819644742003E+08, -2.730943364052336E+07,
2461267.500000000, A.D. 2026-Aug-15 00:00:00.0000, 4.641047546231872E+08, -1.664551871512870E+08, -2.697851115368140E+07,
2461274.500000000, A.D. 2026-Aug-22 00:00:00.0000, 4.667579082483850E+08, -1.560613285416842E+08, -2.663671178176471E+07,
2461281.500000000, A.D. 2026-Aug-29 00:00:00.0000, 4.692218488589854E+08, -1.456042288818888E+08, -2.628411361417444E+07,
$$EOE